{"type": "FeatureCollection", "features": [ {"type": "Feature", "properties": {"norad_id": 57401, "name": "TIANMU-1 09", "group": "weather", "lat": 53.66294602473689, "lon": 33.137364490962135, "alt_km": 471.7998972004543, "timestamp": "2025-12-20T03:42:47.035834+00:00", "meta": {"OBJECT_NAME": "TIANMU-1 09", "OBJECT_ID": "2023-101C", "EPOCH": "2025-12-19T19:37:08.357376", "MEAN_MOTION": 15.28181903, "ECCENTRICITY": 0.0006547, "INCLINATION": 97.2813, "RA_OF_ASC_NODE": 42.8181, "ARG_OF_PERICENTER": 64.7088, "MEAN_ANOMALY": 295.483, "EPHEMERIS_TYPE": 0, "CLASSIFICATION_TYPE": "U", "NORAD_CAT_ID": 57401, "ELEMENT_SET_NO": 999, "REV_AT_EPOCH": 13423, "BSTAR": 0.00020127, "MEAN_MOTION_DOT": 5.458e-05, "MEAN_MOTION_DDOT": 0}, "tle": {"line1": "1 57401U 23101C   25353.81745784  .00005458  00000+0  20127-3 0  9992", "line2": "2 57401  97.2813  42.8181 0006547  64.7088 295.4830 15.28181903134230"}}, "geometry": {"type": "Point", "coordinates": [33.137364490962135, 53.66294602473689]}}, {"type": "Feature", "properties": {"norad_id": 57402, "name": "TIANMU-1 10", "group": "weather", "lat": -45.71709272373208, "lon": -143.5366570929028, "alt_km": 493.5397733926666, "timestamp": "2025-12-20T03:42:47.035847+00:00", "meta": {"OBJECT_NAME": "TIANMU-1 10", "OBJECT_ID": "2023-101D", "EPOCH": "2025-12-19T20:26:27.611808", "MEAN_MOTION": 15.28173767, "ECCENTRICITY": 0.0008263, "INCLINATION": 97.2895, "RA_OF_ASC_NODE": 43.7088, "ARG_OF_PERICENTER": 62.877, "MEAN_ANOMALY": 297.3312, "EPHEMERIS_TYPE": 0, "CLASSIFICATION_TYPE": "U", "NORAD_CAT_ID": 57402, "ELEMENT_SET_NO": 999, "REV_AT_EPOCH": 13423, "BSTAR": 0.00019138, "MEAN_MOTION_DOT": 5.186e-05, "MEAN_MOTION_DDOT": 0}, "tle": {"line1": "1 57402U 23101D   25353.85170847  .00005186  00000+0  19138-3 0  9997", "line2": "2 57402  97.2895  43.7088 0008263  62.8770 297.3312 15.28173767134236"}}, "geometry": {"type": "Point", "coordinates": [-143.5366570929028, -45.71709272373208]}}, {"type": "Feature", "properties": {"norad_id": 57490, "name": "FENGYUN 3F", "group": "weather", "lat": 57.446762559606086, "lon": -103.78142566191474, "alt_km": 819.6185738016184, "timestamp": "2025-12-20T03:42:47.035857+00:00", "meta": {"OBJECT_NAME": "FENGYUN 3F", "OBJECT_ID": "2023-111A", "EPOCH": "2025-12-19T20:22:41.927232", "MEAN_MOTION": 14.19895287, "ECCENTRICITY": 7.43e-05, "INCLINATION": 98.7075, "RA_OF_ASC_NODE": 62.0275, "ARG_OF_PERICENTER": 113.1533, "MEAN_ANOMALY": 246.9722, "EPHEMERIS_TYPE": 0, "CLASSIFICATION_TYPE": "U", "NORAD_CAT_ID": 57490, "ELEMENT_SET_NO": 999, "REV_AT_EPOCH": 12341, "BSTAR": 4.6118e-05, "MEAN_MOTION_DOT": 5.4e-07, "MEAN_MOTION_DDOT": 0}, "tle": {"line1": "1 57490U 23111A   25353.84909638  .00000054  00000+0  46118-4 0  9990", "line2": "2 57490  98.7075  62.0275 0000743 113.1533 246.9722 14.19895287123413"}}, "geometry": {"type": "Point", "coordinates": [-103.78142566191474, 57.446762559606086]}}, {"type": "Feature", "properties": {"norad_id": 58584, "name": "ARKTIKA-M 2", "group": "weather", "lat": 54.37523437972924, "lon": -50.75946862405025, "alt_km": 30128.49446949935, "timestamp": "2025-12-20T03:42:47.035869+00:00", "meta": {"OBJECT_NAME": "ARKTIKA-M 2", "OBJECT_ID": "2023-198A", "EPOCH": "2025-12-18T19:26:38.867712", "MEAN_MOTION": 2.00602974, "ECCENTRICITY": 0.68653183, "INCLINATION": 63.225, "RA_OF_ASC_NODE": 174.2298, "ARG_OF_PERICENTER": 268.0801, "MEAN_ANOMALY": 18.8403, "EPHEMERIS_TYPE": 0, "CLASSIFICATION_TYPE": "U", "NORAD_CAT_ID": 58584, "ELEMENT_SET_NO": 999, "REV_AT_EPOCH": 1470, "BSTAR": 0, "MEAN_MOTION_DOT": 2e-06, "MEAN_MOTION_DDOT": 0}, "tle": {"line1": "1 58584U 23198A   25352.81017208  .00000200  00000+0  00000+0 0  9997", "line2": "2 58584  63.2250 174.2298 6865318 268.0801  18.8403  2.00602974 14701"}}, "geometry": {"type": "Point", "coordinates": [-50.75946862405025, 54.37523437972924]}}, {"type": "Feature", "properties": {"norad_id": 58645, "name": "TIANMU-1 11", "group": "weather", "lat": -47.18884409951108, "lon": 21.668151814998744, "alt_km": 494.2447827779488, "timestamp": "2025-12-20T03:42:47.035881+00:00", "meta": {"OBJECT_NAME": "TIANMU-1 11", "OBJECT_ID": "2023-205A", "EPOCH": "2025-12-19T20:02:46.402656", "MEAN_MOTION": 15.24680484, "ECCENTRICITY": 0.0007567, "INCLINATION": 97.3596, "RA_OF_ASC_NODE": 13.334, "ARG_OF_PERICENTER": 280.4268, "MEAN_ANOMALY": 79.6117, "EPHEMERIS_TYPE": 0, "CLASSIFICATION_TYPE": "U", "NORAD_CAT_ID": 58645, "ELEMENT_SET_NO": 999, "REV_AT_EPOCH": 11017, "BSTAR": 0.00017822, "MEAN_MOTION_DOT": 4.336e-05, "MEAN_MOTION_DDOT": 0}, "tle": {"line1": "1 58645U 23205A   25353.83525929  .00004336  00000+0  17822-3 0  9999", "line2": "2 58645  97.3596  13.3340 0007567 280.4268  79.6117 15.24680484110171"}}, "geometry": {"type": "Point", "coordinates": [21.668151814998744, -47.18884409951108]}}, {"type": "Feature", "properties": {"norad_id": 58646, "name": "TIANMU-1 12", "group": "weather", "lat": 18.342887384315752, "lon": -164.09353562322448, "alt_km": 492.9451129593017, "timestamp": "2025-12-20T03:42:47.035891+00:00", "meta": {"OBJECT_NAME": "TIANMU-1 12", "OBJECT_ID": "2023-205B", "EPOCH": "2025-12-19T20:42:21.426336", "MEAN_MOTION": 15.24565525, "ECCENTRICITY": 0.0005789, "INCLINATION": 97.3583, "RA_OF_ASC_NODE": 13.1641, "ARG_OF_PERICENTER": 258.7404, "MEAN_ANOMALY": 101.3183, "EPHEMERIS_TYPE": 0, "CLASSIFICATION_TYPE": "U", "NORAD_CAT_ID": 58646, "ELEMENT_SET_NO": 999, "REV_AT_EPOCH": 11016, "BSTAR": 0.00018776, "MEAN_MOTION_DOT": 4.555e-05, "MEAN_MOTION_DDOT": 0}, "tle": {"line1": "1 58646U 23205B   25353.86274799  .00004555  00000+0  18776-3 0  9991", "line2": "2 58646  97.3583  13.1641 0005789 258.7404 101.3183 15.24565525110167"}}, "geometry": {"type": "Point", "coordinates": [-164.09353562322448, 18.342887384315752]}}, {"type": "Feature", "properties": {"norad_id": 58647, "name": "TIANMU-1 13", "group": "weather", "lat": -21.268344804723178, "lon": 16.539454837010375, "alt_km": 498.4094610706343, "timestamp": "2025-12-20T03:42:47.035901+00:00", "meta": {"OBJECT_NAME": "TIANMU-1 13", "OBJECT_ID": "2023-205C", "EPOCH": "2025-12-19T21:30:22.551840", "MEAN_MOTION": 15.24608964, "ECCENTRICITY": 0.0006251, "INCLINATION": 97.3612, "RA_OF_ASC_NODE": 13.4009, "ARG_OF_PERICENTER": 235.1783, "MEAN_ANOMALY": 124.8867, "EPHEMERIS_TYPE": 0, "CLASSIFICATION_TYPE": "U", "NORAD_CAT_ID": 58647, "ELEMENT_SET_NO": 999, "REV_AT_EPOCH": 11016, "BSTAR": 0.00018389, "MEAN_MOTION_DOT": 4.466e-05, "MEAN_MOTION_DDOT": 0}, "tle": {"line1": "1 58647U 23205C   25353.89609435  .00004466  00000+0  18389-3 0  9995", "line2": "2 58647  97.3612  13.4009 0006251 235.1783 124.8867 15.24608964110160"}}, "geometry": {"type": "Point", "coordinates": [16.539454837010375, -21.268344804723178]}}, {"type": "Feature", "properties": {"norad_id": 58648, "name": "TIANMU-1 14", "group": "weather", "lat": 67.93569819584185, "lon": -5.5842771202982355, "alt_km": 490.1594265895037, "timestamp": "2025-12-20T03:42:47.035912+00:00", "meta": {"OBJECT_NAME": "TIANMU-1 14", "OBJECT_ID": "2023-205D", "EPOCH": "2025-12-19T19:32:04.301952", "MEAN_MOTION": 15.24591391, "ECCENTRICITY": 0.0006982, "INCLINATION": 97.3544, "RA_OF_ASC_NODE": 12.6624, "ARG_OF_PERICENTER": 241.4918, "MEAN_ANOMALY": 118.5617, "EPHEMERIS_TYPE": 0, "CLASSIFICATION_TYPE": "U", "NORAD_CAT_ID": 58648, "ELEMENT_SET_NO": 999, "REV_AT_EPOCH": 11015, "BSTAR": 0.00018665, "MEAN_MOTION_DOT": 4.532e-05, "MEAN_MOTION_DDOT": 0}, "tle": {"line1": "1 58648U 23205D   25353.81393868  .00004532  00000+0  18665-3 0  9999", "line2": "2 58648  97.3544  12.6624 0006982 241.4918 118.5617 15.24591391110157"}}, "geometry": {"type": "Point", "coordinates": [-5.5842771202982355, 67.93569819584185]}}, {"type": "Feature", "properties": {"norad_id": 58660, "name": "TIANMU-1 19", "group": "weather", "lat": 53.05876741325185, "lon": 95.17039378052368, "alt_km": 479.8964132151168, "timestamp": "2025-12-20T03:42:47.035922+00:00", "meta": {"OBJECT_NAME": "TIANMU-1 19", "OBJECT_ID": "2023-208A", "EPOCH": "2025-12-19T21:11:30.293664", "MEAN_MOTION": 15.27972376, "ECCENTRICITY": 0.0004431, "INCLINATION": 97.4395, "RA_OF_ASC_NODE": 104.9066, "ARG_OF_PERICENTER": 221.4186, "MEAN_ANOMALY": 138.6718, "EPHEMERIS_TYPE": 0, "CLASSIFICATION_TYPE": "U", "NORAD_CAT_ID": 58660, "ELEMENT_SET_NO": 999, "REV_AT_EPOCH": 10991, "BSTAR": 0.00023875, "MEAN_MOTION_DOT": 6.442e-05, "MEAN_MOTION_DDOT": 0}, "tle": {"line1": "1 58660U 23208A   25353.88298951  .00006442  00000+0  23875-3 0  9991", "line2": "2 58660  97.4395 104.9066 0004431 221.4186 138.6718 15.27972376109919"}}, "geometry": {"type": "Point", "coordinates": [95.17039378052368, 53.05876741325185]}}, {"type": "Feature", "properties": {"norad_id": 58661, "name": "TIANMU-1 20", "group": "weather", "lat": 20.03206451600952, "lon": -71.63881465648099, "alt_km": 477.30824869324897, "timestamp": "2025-12-20T03:42:47.035932+00:00", "meta": {"OBJECT_NAME": "TIANMU-1 20", "OBJECT_ID": "2023-208B", "EPOCH": "2025-12-19T20:44:04.005600", "MEAN_MOTION": 15.29162673, "ECCENTRICITY": 0.0006526, "INCLINATION": 97.4333, "RA_OF_ASC_NODE": 105.3422, "ARG_OF_PERICENTER": 235.7602, "MEAN_ANOMALY": 124.302, "EPHEMERIS_TYPE": 0, "CLASSIFICATION_TYPE": "U", "NORAD_CAT_ID": 58661, "ELEMENT_SET_NO": 999, "REV_AT_EPOCH": 10998, "BSTAR": 0.00024548, "MEAN_MOTION_DOT": 6.875e-05, "MEAN_MOTION_DDOT": 0}, "tle": {"line1": "1 58661U 23208B   25353.86393525  .00006875  00000+0  24548-3 0  9991", "line2": "2 58661  97.4333 105.3422 0006526 235.7602 124.3020 15.29162673109989"}}, "geometry": {"type": "Point", "coordinates": [-71.63881465648099, 20.03206451600952]}}]}